IRIDIUM 126             
1 42809U 17039G   23311.45952108  .00000091  00000+0  25382-4 0  9990
2 42809  86.4016  31.7914 0001907  96.7465 263.3947 14.34219263333399
IRIDIUM 124             
1 42810U 17039H   23311.58532883  .00000842  00000+0  24432-3 0  9998
2 42810  86.4479 328.5163 0002457  94.1844 265.9638 14.43280595337712
IRIDIUM 128             
1 42811U 17039J   23311.58979006  .00000871  00000+0  30400-3 0  9995
2 42811  86.3974  63.2574 0001920  97.4348 262.7065 14.34222453333444
IRIDIUM 121             
1 42812U 17039K   23311.47854689  .00000048  00000+0  10063-4 0  9993
2 42812  86.4050  31.8127 0001709  58.8389 301.2975 14.34223528333271
IRIDIUM 133             
1 42955U 17061A   23311.34242644  .00000906  00000+0  31632-3 0  9991
2 42955  86.3976  63.4552 0001753  90.3977 269.7420 14.34225617318201
IRIDIUM 100             
1 42956U 17061B   23311.40585894  .00000837  00000+0  29167-3 0  9999
2 42956  86.3974  63.3698 0002009  95.3773 264.7652 14.34222541318210
IRIDIUM 122             
1 42957U 17061C   23311.58345179  .00000743  00000+0  25812-3 0  9998
2 42957  86.3975  63.2932 0001940 100.5265 259.6150 14.34221790318244
IRIDIUM 129             
1 42958U 17061D   23311.60882204  .00002211  00000+0  78213-3 0  9992
2 42958  86.3974  63.3394 0001877  95.1775 264.9635 14.34218986318263
