<?xml version="1.0" encoding="UTF-8"?>
<ndm xmlns:xsi="http://www.w3.org/2001/XMLSchema-instance" xsi:noNamespaceSchemaLocation="https://sanaregistry.org/r/ndmxml_unqualified/ndmxml-2.0.0-master-2.0.xsd">
<omm id="CCSDS_OMM_VERS" version="2.0">
<header><CREATION_DATE/><ORIGINATOR/></header><body><segment><metadata><OBJECT_NAME>IRIDIUM 126</OBJECT_NAME><OBJECT_ID>2017-039G</OBJECT_ID><CENTER_NAME>EARTH</CENTER_NAME><REF_FRAME>TEME</REF_FRAME><TIME_SYSTEM>UTC</TIME_SYSTEM><MEAN_ELEMENT_THEORY>SGP4</MEAN_ELEMENT_THEORY></metadata><data><meanElements><EPOCH>2023-11-07T11:01:42.621312</EPOCH><MEAN_MOTION>14.34219263</MEAN_MOTION><ECCENTRICITY>.0001907</ECCENTRICITY><INCLINATION>86.4016</INCLINATION><RA_OF_ASC_NODE>31.7914</RA_OF_ASC_NODE><ARG_OF_PERICENTER>96.7465</ARG_OF_PERICENTER><MEAN_ANOMALY>263.3947</MEAN_ANOMALY></meanElements><tleParameters><EPHEMERIS_TYPE>0</EPHEMERIS_TYPE><CLASSIFICATION_TYPE>U</CLASSIFICATION_TYPE><NORAD_CAT_ID>42809</NORAD_CAT_ID><ELEMENT_SET_NO>999</ELEMENT_SET_NO><REV_AT_EPOCH>33339</REV_AT_EPOCH><BSTAR>.25382E-4</BSTAR><MEAN_MOTION_DOT>.91E-6</MEAN_MOTION_DOT><MEAN_MOTION_DDOT>0</MEAN_MOTION_DDOT></tleParameters></data></segment></body></omm>
<omm id="CCSDS_OMM_VERS" version="2.0">
<header><CREATION_DATE/><ORIGINATOR/></header><body><segment><metadata><OBJECT_NAME>IRIDIUM 124</OBJECT_NAME><OBJECT_ID>2017-039H</OBJECT_ID><CENTER_NAME>EARTH</CENTER_NAME><REF_FRAME>TEME</REF_FRAME><TIME_SYSTEM>UTC</TIME_SYSTEM><MEAN_ELEMENT_THEORY>SGP4</MEAN_ELEMENT_THEORY></metadata><data><meanElements><EPOCH>2023-11-07T14:02:52.410912</EPOCH><MEAN_MOTION>14.43280595</MEAN_MOTION><ECCENTRICITY>.0002457</ECCENTRICITY><INCLINATION>86.4479</INCLINATION><RA_OF_ASC_NODE>328.5163</RA_OF_ASC_NODE><ARG_OF_PERICENTER>94.1844</ARG_OF_PERICENTER><MEAN_ANOMALY>265.9638</MEAN_ANOMALY></meanElements><tleParameters><EPHEMERIS_TYPE>0</EPHEMERIS_TYPE><CLASSIFICATION_TYPE>U</CLASSIFICATION_TYPE><NORAD_CAT_ID>42810</NORAD_CAT_ID><ELEMENT_SET_NO>999</ELEMENT_SET_NO><REV_AT_EPOCH>33771</REV_AT_EPOCH><BSTAR>.24432E-3</BSTAR><MEAN_MOTION_DOT>.842E-5</MEAN_MOTION_DOT><MEAN_MOTION_DDOT>0</MEAN_MOTION_DDOT></tleParameters></data></segment></body></omm>
<omm id="CCSDS_OMM_VERS" version="2.0">
<header><CREATION_DATE/><ORIGINATOR/></header><body><segment><metadata><OBJECT_NAME>IRIDIUM 128</OBJECT_NAME><OBJECT_ID>2017-039J</OBJECT_ID><CENTER_NAME>EARTH</CENTER_NAME><REF_FRAME>TEME</REF_FRAME><TIME_SYSTEM>UTC</TIME_SYSTEM><MEAN_ELEMENT_THEORY>SGP4</MEAN_ELEMENT_THEORY></metadata><data><meanElements><EPOCH>2023-11-07T14:09:17.861184</EPOCH><MEAN_MOTION>14.34222453</MEAN_MOTION><ECCENTRICITY>.000192</ECCENTRICITY><INCLINATION>86.3974</INCLINATION><RA_OF_ASC_NODE>63.2574</RA_OF_ASC_NODE><ARG_OF_PERICENTER>97.4348</ARG_OF_PERICENTER><MEAN_ANOMALY>262.7065</MEAN_ANOMALY></meanElements><tleParameters><EPHEMERIS_TYPE>0</EPHEMERIS_TYPE><CLASSIFICATION_TYPE>U</CLASSIFICATION_TYPE><NORAD_CAT_ID>42811</NORAD_CAT_ID><ELEMENT_SET_NO>999</ELEMENT_SET_NO><REV_AT_EPOCH>33344</REV_AT_EPOCH><BSTAR>.304E-3</BSTAR><MEAN_MOTION_DOT>.871E-5</MEAN_MOTION_DOT><MEAN_MOTION_DDOT>0</MEAN_MOTION_DDOT></tleParameters></data></segment></body></omm>
<omm id="CCSDS_OMM_VERS" version="2.0">
<header><CREATION_DATE/><ORIGINATOR/></header><body><segment><metadata><OBJECT_NAME>IRIDIUM 121</OBJECT_NAME><OBJECT_ID>2017-039K</OBJECT_ID><CENTER_NAME>EARTH</CENTER_NAME><REF_FRAME>TEME</REF_FRAME><TIME_SYSTEM>UTC</TIME_SYSTEM><MEAN_ELEMENT_THEORY>SGP4</MEAN_ELEMENT_THEORY></metadata><data><meanElements><EPOCH>2023-11-07T11:29:06.451296</EPOCH><MEAN_MOTION>14.34223528</MEAN_MOTION><ECCENTRICITY>.0001709</ECCENTRICITY><INCLINATION>86.4050</INCLINATION><RA_OF_ASC_NODE>31.8127</RA_OF_ASC_NODE><ARG_OF_PERICENTER>58.8389</ARG_OF_PERICENTER><MEAN_ANOMALY>301.2975</MEAN_ANOMALY></meanElements><tleParameters><EPHEMERIS_TYPE>0</EPHEMERIS_TYPE><CLASSIFICATION_TYPE>U</CLASSIFICATION_TYPE><NORAD_CAT_ID>42812</NORAD_CAT_ID><ELEMENT_SET_NO>999</ELEMENT_SET_NO><REV_AT_EPOCH>33327</REV_AT_EPOCH><BSTAR>.10063E-4</BSTAR><MEAN_MOTION_DOT>.48E-6</MEAN_MOTION_DOT><MEAN_MOTION_DDOT>0</MEAN_MOTION_DDOT></tleParameters></data></segment></body></omm>
<omm id="CCSDS_OMM_VERS" version="2.0">
<header><CREATION_DATE/><ORIGINATOR/></header><body><segment><metadata><OBJECT_NAME>IRIDIUM 133</OBJECT_NAME><OBJECT_ID>2017-061A</OBJECT_ID><CENTER_NAME>EARTH</CENTER_NAME><REF_FRAME>TEME</REF_FRAME><TIME_SYSTEM>UTC</TIME_SYSTEM><MEAN_ELEMENT_THEORY>SGP4</MEAN_ELEMENT_THEORY></metadata><data><meanElements><EPOCH>2023-11-07T08:13:05.644416</EPOCH><MEAN_MOTION>14.34225617</MEAN_MOTION><ECCENTRICITY>.0001753</ECCENTRICITY><INCLINATION>86.3976</INCLINATION><RA_OF_ASC_NODE>63.4552</RA_OF_ASC_NODE><ARG_OF_PERICENTER>90.3977</ARG_OF_PERICENTER><MEAN_ANOMALY>269.7420</MEAN_ANOMALY></meanElements><tleParameters><EPHEMERIS_TYPE>0</EPHEMERIS_TYPE><CLASSIFICATION_TYPE>U</CLASSIFICATION_TYPE><NORAD_CAT_ID>42955</NORAD_CAT_ID><ELEMENT_SET_NO>999</ELEMENT_SET_NO><REV_AT_EPOCH>31820</REV_AT_EPOCH><BSTAR>.31632E-3</BSTAR><MEAN_MOTION_DOT>.906E-5</MEAN_MOTION_DOT><MEAN_MOTION_DDOT>0</MEAN_MOTION_DDOT></tleParameters></data></segment></body></omm>
<omm id="CCSDS_OMM_VERS" version="2.0">
<header><CREATION_DATE/><ORIGINATOR/></header><body><segment><metadata><OBJECT_NAME>IRIDIUM 100</OBJECT_NAME><OBJECT_ID>2017-061B</OBJECT_ID><CENTER_NAME>EARTH</CENTER_NAME><REF_FRAME>TEME</REF_FRAME><TIME_SYSTEM>UTC</TIME_SYSTEM><MEAN_ELEMENT_THEORY>SGP4</MEAN_ELEMENT_THEORY></metadata><data><meanElements><EPOCH>2023-11-07T09:44:26.212416</EPOCH><MEAN_MOTION>14.34222541</MEAN_MOTION><ECCENTRICITY>.0002009</ECCENTRICITY><INCLINATION>86.3974</INCLINATION><RA_OF_ASC_NODE>63.3698</RA_OF_ASC_NODE><ARG_OF_PERICENTER>95.3773</ARG_OF_PERICENTER><MEAN_ANOMALY>264.7652</MEAN_ANOMALY></meanElements><tleParameters><EPHEMERIS_TYPE>0</EPHEMERIS_TYPE><CLASSIFICATION_TYPE>U</CLASSIFICATION_TYPE><NORAD_CAT_ID>42956</NORAD_CAT_ID><ELEMENT_SET_NO>999</ELEMENT_SET_NO><REV_AT_EPOCH>31821</REV_AT_EPOCH><BSTAR>.29167E-3</BSTAR><MEAN_MOTION_DOT>.837E-5</MEAN_MOTION_DOT><MEAN_MOTION_DDOT>0</MEAN_MOTION_DDOT></tleParameters></data></segment></body></omm>
<omm id="CCSDS_OMM_VERS" version="2.0">
<header><CREATION_DATE/><ORIGINATOR/></header><body><segment><metadata><OBJECT_NAME>IRIDIUM 122</OBJECT_NAME><OBJECT_ID>2017-061C</OBJECT_ID><CENTER_NAME>EARTH</CENTER_NAME><REF_FRAME>TEME</REF_FRAME><TIME_SYSTEM>UTC</TIME_SYSTEM><MEAN_ELEMENT_THEORY>SGP4</MEAN_ELEMENT_THEORY></metadata><data><meanElements><EPOCH>2023-11-07T14:00:10.234656</EPOCH><MEAN_MOTION>14.34221790</MEAN_MOTION><ECCENTRICITY>.000194</ECCENTRICITY><INCLINATION>86.3975</INCLINATION><RA_OF_ASC_NODE>63.2932</RA_OF_ASC_NODE><ARG_OF_PERICENTER>100.5265</ARG_OF_PERICENTER><MEAN_ANOMALY>259.6150</MEAN_ANOMALY></meanElements><tleParameters><EPHEMERIS_TYPE>0</EPHEMERIS_TYPE><CLASSIFICATION_TYPE>U</CLASSIFICATION_TYPE><NORAD_CAT_ID>42957</NORAD_CAT_ID><ELEMENT_SET_NO>999</ELEMENT_SET_NO><REV_AT_EPOCH>31824</REV_AT_EPOCH><BSTAR>.25812E-3</BSTAR><MEAN_MOTION_DOT>.743E-5</MEAN_MOTION_DOT><MEAN_MOTION_DDOT>0</MEAN_MOTION_DDOT></tleParameters></data></segment></body></omm>
<omm id="CCSDS_OMM_VERS" version="2.0">
<header><CREATION_DATE/><ORIGINATOR/></header><body><segment><metadata><OBJECT_NAME>IRIDIUM 129</OBJECT_NAME><OBJECT_ID>2017-061D</OBJECT_ID><CENTER_NAME>EARTH</CENTER_NAME><REF_FRAME>TEME</REF_FRAME><TIME_SYSTEM>UTC</TIME_SYSTEM><MEAN_ELEMENT_THEORY>SGP4</MEAN_ELEMENT_THEORY></metadata><data><meanElements><EPOCH>2023-11-07T14:36:42.224256</EPOCH><MEAN_MOTION>14.34218986</MEAN_MOTION><ECCENTRICITY>.0001877</ECCENTRICITY><INCLINATION>86.3974</INCLINATION><RA_OF_ASC_NODE>63.3394</RA_OF_ASC_NODE><ARG_OF_PERICENTER>95.1775</ARG_OF_PERICENTER><MEAN_ANOMALY>264.9635</MEAN_ANOMALY></meanElements><tleParameters><EPHEMERIS_TYPE>0</EPHEMERIS_TYPE><CLASSIFICATION_TYPE>U</CLASSIFICATION_TYPE><NORAD_CAT_ID>42958</NORAD_CAT_ID><ELEMENT_SET_NO>999</ELEMENT_SET_NO><REV_AT_EPOCH>31826</REV_AT_EPOCH><BSTAR>.78213E-3</BSTAR><MEAN_MOTION_DOT>.2211E-4</MEAN_MOTION_DOT><MEAN_MOTION_DDOT>0</MEAN_MOTION_DDOT></tleParameters></data></segment></body></omm>

</ndm>
